start=new Date('2023-04-20T00:00:00.000Z').valueOf();
sats=[{"NORAD_CAT_ID":"52487","TLE_LINE1":"1 52487U 22049AN  23109.71552175  .00000513  00000-0  50288-4 0  9997","GP_ID":"230395792","OBJECT_TYPE":"PAYLOAD","CENTER_NAME":"EARTH","ELEMENT_SET_NO":"999","MEAN_ANOMALY":"269.0985","SEMIMAJOR_AXIS":"6917.881","PERIAPSIS":"538.797","EPHEMERIS_TYPE":"0","RCS_SIZE":"LARGE","MEAN_MOTION":"15.08839820","SITE":"AFETR","APOAPSIS":"540.695","LAUNCH_DATE":"2022-05-06","MEAN_MOTION_DDOT":"0.0000000000000","MEAN_MOTION_DOT":"0.00000513","TLE_LINE2":"2 52487  53.2182 105.1906 0001372  91.0165 269.0985 15.08839820 54367","OBJECT_NAME":"STARLINK-3902","BSTAR":"0.00005028800000","TIME_SYSTEM":"UTC","ECCENTRICITY":"0.00013720","MEAN_ELEMENT_THEORY":"SGP4","REV_AT_EPOCH":"5436","INCLINATION":"53.2182","DECAY_DATE":null,"OBJECT_ID":"2022-049AN","CLASSIFICATION_TYPE":"U","PERIOD":"95.438","EPOCH":"2023-04-19T17:10:21.079200","FILE":"3890520","REF_FRAME":"TEME","ARG_OF_PERICENTER":"91.0165","COUNTRY_CODE":"US","RA_OF_ASC_NODE":"105.1906"},{"EPHEMERIS_TYPE":"0","RCS_SIZE":"LARGE","PERIAPSIS":"538.944","SITE":"AFETR","MEAN_MOTION":"15.08853574","LAUNCH_DATE":"2022-05-06","APOAPSIS":"540.464","TLE_LINE2":"2 52488  53.2160 114.9695 0001099  94.0774 266.0344 15.08853574 52997","MEAN_MOTION_DOT":"0.00002569","MEAN_MOTION_DDOT":"0.0000000000000","NORAD_CAT_ID":"52488","OBJECT_TYPE":"PAYLOAD","GP_ID":"230396543","TLE_LINE1":"1 52488U 22049AP  23109.74033333  .00002569  00000-0  17935-3 0  9995","CENTER_NAME":"EARTH","SEMIMAJOR_AXIS":"6917.839","MEAN_ANOMALY":"266.0344","ELEMENT_SET_NO":"999","FILE":"3890520","EPOCH":"2023-04-19T17:46:04.799712","ARG_OF_PERICENTER":"94.0774","COUNTRY_CODE":"US","REF_FRAME":"TEME","RA_OF_ASC_NODE":"114.9695","BSTAR":"0.00017935000000","OBJECT_NAME":"STARLINK-3892","REV_AT_EPOCH":"5299","MEAN_ELEMENT_THEORY":"SGP4","TIME_SYSTEM":"UTC","ECCENTRICITY":"0.00010990","PERIOD":"95.437","CLASSIFICATION_TYPE":"U","OBJECT_ID":"2022-049AP","INCLINATION":"53.2160","DECAY_DATE":null},{"FILE":"3890520","EPOCH":"2023-04-19T17:56:41.858016","RA_OF_ASC_NODE":"114.9347","ARG_OF_PERICENTER":"88.1810","COUNTRY_CODE":"US","REF_FRAME":"TEME","BSTAR":"0.00015894000000","OBJECT_NAME":"STARLINK-3923","PERIOD":"95.437","CLASSIFICATION_TYPE":"U","OBJECT_ID":"2022-049AQ","DECAY_DATE":null,"INCLINATION":"53.2152","REV_AT_EPOCH":"5299","MEAN_ELEMENT_THEORY":"SGP4","ECCENTRICITY":"0.00011690","TIME_SYSTEM":"UTC","SITE":"AFETR","MEAN_MOTION":"15.08842680","EPHEMERIS_TYPE":"0","RCS_SIZE":"LARGE","PERIAPSIS":"538.928","MEAN_MOTION_DOT":"0.00002243","TLE_LINE2":"2 52489  53.2152 114.9347 0001169  88.1810 271.9316 15.08842680 52996","MEAN_MOTION_DDOT":"0.0000000000000","LAUNCH_DATE":"2022-05-06","APOAPSIS":"540.546","OBJECT_TYPE":"PAYLOAD","TLE_LINE1":"1 52489U 22049AQ  23109.74770669  .00002243  00000-0  15894-3 0  9997","GP_ID":"230395291","NORAD_CAT_ID":"52489","SEMIMAJOR_AXIS":"6917.872","MEAN_ANOMALY":"271.9316","ELEMENT_SET_NO":"999","CENTER_NAME":"EARTH"},{"EPOCH":"2023-04-19T16:33:14.204736","FILE":"3890520","RA_OF_ASC_NODE":"105.1952","ARG_OF_PERICENTER":"99.2459","COUNTRY_CODE":"US","REF_FRAME":"TEME","BSTAR":"0.00029249000000","OBJECT_NAME":"STARLINK-3914","CLASSIFICATION_TYPE":"U","OBJECT_ID":"2022-049AR","PERIOD":"95.438","DECAY_DATE":null,"INCLINATION":"53.2143","REV_AT_EPOCH":"5312","ECCENTRICITY":"0.00013280","TIME_SYSTEM":"UTC","MEAN_ELEMENT_THEORY":"SGP4","SITE":"AFETR","MEAN_MOTION":"15.08839624","PERIAPSIS":"538.828","RCS_SIZE":"LARGE","EPHEMERIS_TYPE":"0","MEAN_MOTION_DOT":"0.00004370","TLE_LINE2":"2 52490  53.2143 105.1952 0001328  99.2459 260.8683 15.08839624 53125","MEAN_MOTION_DDOT":"0.0000000000000","LAUNCH_DATE":"2022-05-06","APOAPSIS":"540.665","TLE_LINE1":"1 52490U 22049AR  23109.68974774  .00004370  00000-0  29249-3 0  9997","GP_ID":"230395041","OBJECT_TYPE":"PAYLOAD","NORAD_CAT_ID":"52490","SEMIMAJOR_AXIS":"6917.882","ELEMENT_SET_NO":"999","MEAN_ANOMALY":"260.8683","CENTER_NAME":"EARTH"},{"EPHEMERIS_TYPE":"0","RCS_SIZE":"LARGE","PERIAPSIS":"538.754","SITE":"AFETR","MEAN_MOTION":"15.08836262","LAUNCH_DATE":"2022-05-06","APOAPSIS":"540.759","MEAN_MOTION_DOT":"0.00000669","TLE_LINE2":"2 52491  53.2166 105.1650 0001449  93.4697 266.6461 15.08836262 53123","MEAN_MOTION_DDOT":"0.0000000000000","NORAD_CAT_ID":"52491","OBJECT_TYPE":"PAYLOAD","GP_ID":"230396293","TLE_LINE1":"1 52491U 22049AS  23109.69711023  .00000669  00000-0  60152-4 0  9991","CENTER_NAME":"EARTH","SEMIMAJOR_AXIS":"6917.892","MEAN_ANOMALY":"266.6461","ELEMENT_SET_NO":"999","FILE":"3890520","EPOCH":"2023-04-19T16:43:50.323872","COUNTRY_CODE":"US","ARG_OF_PERICENTER":"93.4697","REF_FRAME":"TEME","RA_OF_ASC_NODE":"105.1650","BSTAR":"0.00006015200000","OBJECT_NAME":"STARLINK-3908","REV_AT_EPOCH":"5312","MEAN_ELEMENT_THEORY":"SGP4","TIME_SYSTEM":"UTC","ECCENTRICITY":"0.00014490","PERIOD":"95.438","OBJECT_ID":"2022-049AS","CLASSIFICATION_TYPE":"U","DECAY_DATE":null,"INCLINATION":"53.2166"},{"NORAD_CAT_ID":"52492","OBJECT_TYPE":"PAYLOAD","GP_ID":"230396043","TLE_LINE1":"1 52492U 22049AT  23109.68238599 -.00000050  00000-0  14947-4 0  9999","CENTER_NAME":"EARTH","SEMIMAJOR_AXIS":"6917.885","MEAN_ANOMALY":"261.2472","ELEMENT_SET_NO":"999","RCS_SIZE":"LARGE","EPHEMERIS_TYPE":"0","PERIAPSIS":"538.816","SITE":"AFETR","MEAN_MOTION":"15.08838417","LAUNCH_DATE":"2022-05-06","APOAPSIS":"540.684","TLE_LINE2":"2 52492  53.2165 105.2264 0001350  98.8673 261.2472 15.08838417 53126","MEAN_MOTION_DOT":"-0.00000050","MEAN_MOTION_DDOT":"0.0000000000000","BSTAR":"0.00001494700000","OBJECT_NAME":"STARLINK-3916","REV_AT_EPOCH":"5312","MEAN_ELEMENT_THEORY":"SGP4","ECCENTRICITY":"0.00013500","TIME_SYSTEM":"UTC","PERIOD":"95.438","CLASSIFICATION_TYPE":"U","OBJECT_ID":"2022-049AT","DECAY_DATE":null,"INCLINATION":"53.2165","FILE":"3890520","EPOCH":"2023-04-19T16:22:38.149536","ARG_OF_PERICENTER":"98.8673","COUNTRY_CODE":"US","REF_FRAME":"TEME","RA_OF_ASC_NODE":"105.2264"},{"PERIAPSIS":"538.875","RCS_SIZE":"LARGE","EPHEMERIS_TYPE":"0","SITE":"AFETR","MEAN_MOTION":"15.08843281","LAUNCH_DATE":"2022-05-06","APOAPSIS":"540.596","TLE_LINE2":"2 52493  53.2146 105.1784 0001244 101.7463 258.3669 15.08843281 53125","MEAN_MOTION_DOT":"-0.00000196","MEAN_MOTION_DDOT":"0.0000000000000","NORAD_CAT_ID":"52493","GP_ID":"230394792","TLE_LINE1":"1 52493U 22049AU  23109.69342412 -.00000196  00000-0  57788-5 0  9993","OBJECT_TYPE":"PAYLOAD","CENTER_NAME":"EARTH","SEMIMAJOR_AXIS":"6917.870","ELEMENT_SET_NO":"999","MEAN_ANOMALY":"258.3669","EPOCH":"2023-04-19T16:38:31.843968","FILE":"3890520","ARG_OF_PERICENTER":"101.7463","COUNTRY_CODE":"US","REF_FRAME":"TEME","RA_OF_ASC_NODE":"105.1784","BSTAR":"0.00000577880000","OBJECT_NAME":"STARLINK-3883","REV_AT_EPOCH":"5312","ECCENTRICITY":"0.00012440","TIME_SYSTEM":"UTC","MEAN_ELEMENT_THEORY":"SGP4","OBJECT_ID":"2022-049AU","CLASSIFICATION_TYPE":"U","PERIOD":"95.437","INCLINATION":"53.2146","DECAY_DATE":null},{"SEMIMAJOR_AXIS":"6917.887","ELEMENT_SET_NO":"999","MEAN_ANOMALY":"268.4307","CENTER_NAME":"EARTH","TLE_LINE1":"1 52494U 22049AV  23109.40638841  .00000117  00000-0  25436-4 0  9993","GP_ID":"230367824","OBJECT_TYPE":"PAYLOAD","NORAD_CAT_ID":"52494","TLE_LINE2":"2 52494  53.2155 106.4693 0001360  91.6841 268.4307 15.08837871 53089","MEAN_MOTION_DOT":"0.00000117","MEAN_MOTION_DDOT":"0.0000000000000","LAUNCH_DATE":"2022-05-06","APOAPSIS":"540.693","SITE":"AFETR","MEAN_MOTION":"15.08837871","PERIAPSIS":"538.811","RCS_SIZE":"LARGE","EPHEMERIS_TYPE":"0","CLASSIFICATION_TYPE":"U","OBJECT_ID":"2022-049AV","PERIOD":"95.438","INCLINATION":"53.2155","DECAY_DATE":null,"REV_AT_EPOCH":"5308","TIME_SYSTEM":"UTC","ECCENTRICITY":"0.00013600","MEAN_ELEMENT_THEORY":"SGP4","BSTAR":"0.00002543600000","OBJECT_NAME":"STARLINK-3857","RA_OF_ASC_NODE":"106.4693","COUNTRY_CODE":"US","ARG_OF_PERICENTER":"91.6841","REF_FRAME":"TEME","EPOCH":"2023-04-19T09:45:11.958624","FILE":"3890383"},{"SITE":"AFETR","MEAN_MOTION":"15.08841742","RCS_SIZE":"LARGE","EPHEMERIS_TYPE":"0","PERIAPSIS":"538.841","MEAN_MOTION_DOT":"0.00001084","TLE_LINE2":"2 52495  53.2160 106.4008 0001300  94.6568 265.4573 15.08841742 53083","MEAN_MOTION_DDOT":"0.0000000000000","LAUNCH_DATE":"2022-05-06","APOAPSIS":"540.639","OBJECT_TYPE":"PAYLOAD","GP_ID":"230366083","TLE_LINE1":"1 52495U 22049AW  23109.42110249  .00001084  00000-0  86203-4 0  9996","NORAD_CAT_ID":"52495","SEMIMAJOR_AXIS":"6917.875","MEAN_ANOMALY":"265.4573","ELEMENT_SET_NO":"999","CENTER_NAME":"EARTH","FILE":"3890383","EPOCH":"2023-04-19T10:06:23.255136","RA_OF_ASC_NODE":"106.4008","COUNTRY_CODE":"US","ARG_OF_PERICENTER":"94.6568","REF_FRAME":"TEME","BSTAR":"0.00008620300000","OBJECT_NAME":"STARLINK-3905","PERIOD":"95.437","CLASSIFICATION_TYPE":"U","OBJECT_ID":"2022-049AW","INCLINATION":"53.2160","DECAY_DATE":null,"REV_AT_EPOCH":"5308","MEAN_ELEMENT_THEORY":"SGP4","TIME_SYSTEM":"UTC","ECCENTRICITY":"0.00013000"},{"OBJECT_NAME":"STARLINK-3871","BSTAR":"0.00005971500000","MEAN_ELEMENT_THEORY":"SGP4","ECCENTRICITY":"0.00015000","TIME_SYSTEM":"UTC","REV_AT_EPOCH":"5319","DECAY_DATE":null,"INCLINATION":"53.2172","PERIOD":"95.438","CLASSIFICATION_TYPE":"U","OBJECT_ID":"2022-049AX","FILE":"3890520","EPOCH":"2023-04-19T16:57:44.554752","REF_FRAME":"TEME","COUNTRY_CODE":"US","ARG_OF_PERICENTER":"86.2383","RA_OF_ASC_NODE":"100.1230","NORAD_CAT_ID":"52496","OBJECT_TYPE":"PAYLOAD","TLE_LINE1":"1 52496U 22049AX  23109.70676568  .00000663  00000-0  59715-4 0  9999","GP_ID":"230396544","CENTER_NAME":"EARTH","MEAN_ANOMALY":"273.8780","ELEMENT_SET_NO":"999","SEMIMAJOR_AXIS":"6917.881","RCS_SIZE":"LARGE","EPHEMERIS_TYPE":"0","PERIAPSIS":"538.708","MEAN_MOTION":"15.08839836","SITE":"AFETR","APOAPSIS":"540.784","LAUNCH_DATE":"2022-05-06","MEAN_MOTION_DDOT":"0.0000000000000","MEAN_MOTION_DOT":"0.00000663","TLE_LINE2":"2 52496  53.2172 100.1230 0001500  86.2383 273.8780 15.08839836 53195"}];
